[{"OBJECT_NAME":"STARLINK-31840","OBJECT_ID":"2024-118Q","EPOCH":"2026-03-09T06:48:12.063744","MEAN_MOTION":15.30190772,"ECCENTRICITY":0.00012769,"INCLINATION":53.1618,"RA_OF_ASC_NODE":28.6431,"ARG_OF_PERICENTER":95.0248,"MEAN_ANOMALY":265.0899,"EPHEMERIS_TYPE":0,"CLASSIFICATION_TYPE":"U","NORAD_CAT_ID":60127,"ELEMENT_SET_NO":999,"REV_AT_EPOCH":9563,"BSTAR":-3.2940665e-5,"MEAN_MOTION_DOT":-1.334e-5,"MEAN_MOTION_DDOT":0},{"OBJECT_NAME":"ELECTRON KICK STAGE R\/B","OBJECT_ID":"2022-147B","EPOCH":"2026-03-09T22:28:20.187264","MEAN_MOTION":15.28920172,"ECCENTRICITY":0.00095089,"INCLINATION":97.642,"RA_OF_ASC_NODE":85.1135,"ARG_OF_PERICENTER":110.4683,"MEAN_ANOMALY":249.7578,"EPHEMERIS_TYPE":0,"CLASSIFICATION_TYPE":"U","NORAD_CAT_ID":54228,"ELEMENT_SET_NO":999,"REV_AT_EPOCH":18390,"BSTAR":0.00083201931,"MEAN_MOTION_DOT":0.00023374,"MEAN_MOTION_DDOT":0}]
